ONEWEB-0528             
1 54643U 22166B   23235.08472356  .00000081  00000+0  16430-3 0  9994
2 54643  87.9184  88.8918 0001784  87.7031 272.4307 13.21826970 36046
ONEWEB-0539             
1 54644U 22166C   23234.13851707  .00000028  00000+0  36220-4 0  9992
2 54644  87.9187  89.0799 0001446  85.6423 274.4876 13.21825505 35918
ONEWEB-0540             
1 54645U 22166D   23234.13221152 -.00000041  00000+0 -13028-3 0  9995
2 54645  87.9190  89.1055 0001527  84.2651 275.8657 13.21825971 35927
ONEWEB-0542             
1 54646U 22166E   23234.52542371 -.00000003  00000+0 -38609-4 0  9999
2 54646  87.9187  89.0032 0001406  67.4558 292.6725 13.21825083 35975
ONEWEB-0545             
1 54647U 22166F   23235.09732809  .00000042  00000+0  69392-4 0  9994
2 54647  87.9188  88.9285 0001092  88.1330 271.9929 13.21828207 36028
ONEWEB-0580             
1 54648U 22166G   23235.07212180  .00000055  00000+0  10066-3 0  9995
2 54648  87.9183  88.8910 0001492  64.4812 295.6477 13.21824357 36050
ONEWEB-0582             
1 54649U 22166H   23234.58217631 -.00000034  00000+0 -11354-3 0  9997
2 54649  87.9186  89.0252 0001553  92.1684 267.9628 13.21824175 35977
ONEWEB-0583             
1 54650U 22166J   23234.51910634 -.00000023  00000+0 -86375-4 0  9999
2 54650  87.9189  89.0451 0002175  90.9332 269.2051 13.21825584 35981
